[{"OBJECT_NAME":"KUIPER-00031","OBJECT_ID":"2025-088W","EPOCH":"2026-03-09T08:49:36.222240","MEAN_MOTION":14.83663511,"ECCENTRICITY":0.00020432,"INCLINATION":51.8994,"RA_OF_ASC_NODE":97.1214,"ARG_OF_PERICENTER":139.5452,"MEAN_ANOMALY":220.5664,"EPHEMERIS_TYPE":0,"CLASSIFICATION_TYPE":"U","NORAD_CAT_ID":63744,"ELEMENT_SET_NO":999,"REV_AT_EPOCH":4750,"BSTAR":0.00061482299,"MEAN_MOTION_DOT":4.901e-5,"MEAN_MOTION_DDOT":0},{"OBJECT_NAME":"FENGYUN 1C DEB","OBJECT_ID":"1999-025CDT","EPOCH":"2026-03-05T05:33:19.841760","MEAN_MOTION":14.73153976,"ECCENTRICITY":0.0095719,"INCLINATION":99.0495,"RA_OF_ASC_NODE":350.4422,"ARG_OF_PERICENTER":227.7985,"MEAN_ANOMALY":131.5066,"EPHEMERIS_TYPE":0,"CLASSIFICATION_TYPE":"U","NORAD_CAT_ID":31720,"ELEMENT_SET_NO":999,"REV_AT_EPOCH":99450,"BSTAR":0.0009974,"MEAN_MOTION_DOT":6.852e-5,"MEAN_MOTION_DDOT":0}]
